[{"OBJECT_NAME":"ICEYE-X31","OBJECT_ID":"2023-174AJ","EPOCH":"2026-03-09T23:06:20.433600","MEAN_MOTION":15.30950809,"ECCENTRICITY":0.00015021,"INCLINATION":97.3851,"RA_OF_ASC_NODE":144.9524,"ARG_OF_PERICENTER":332.6589,"MEAN_ANOMALY":27.4572,"EPHEMERIS_TYPE":0,"CLASSIFICATION_TYPE":"U","NORAD_CAT_ID":58288,"ELEMENT_SET_NO":999,"REV_AT_EPOCH":12955,"BSTAR":0.00066288467,"MEAN_MOTION_DOT":0.00019777,"MEAN_MOTION_DDOT":0},{"OBJECT_NAME":"STARLINK-32139","OBJECT_ID":"2024-183B","EPOCH":"2026-03-09T12:09:32.296320","MEAN_MOTION":15.30188631,"ECCENTRICITY":9.564e-5,"INCLINATION":53.1581,"RA_OF_ASC_NODE":143.3584,"ARG_OF_PERICENTER":116.4481,"MEAN_ANOMALY":243.6618,"EPHEMERIS_TYPE":0,"CLASSIFICATION_TYPE":"U","NORAD_CAT_ID":61510,"ELEMENT_SET_NO":999,"REV_AT_EPOCH":7962,"BSTAR":-1.6468453e-5,"MEAN_MOTION_DOT":-8.46e-6,"MEAN_MOTION_DDOT":0}]
